NORAD_CAT_ID,OBJECT_NAME,OBJECT_TYPE,EPOCH,MEAN_MOTION,ECCENTRICITY,INCLINATION,RA_OF_ASC_NODE,ARG_OF_PERICENTER,MEAN_ANOMALY,BSTAR,MEAN_MOTION_DOT,MEAN_MOTION_DDOT,TLE_LINE0,TLE_LINE1,TLE_LINE2,SEMIMAJOR_AXIS,PERIOD,APOGEE,PERIGEE,DECAYED
55774.0,STARLINK-5812,PAYLOAD,2023-08-11 18:30:14,14.98329146,0.0003026,69.9987,76.8002,273.9885,86.0928,-6.2467e-07,-1e-06,0.0,0 STARLINK-5812,1 55774U 23028AK  23223.77100367 -.00000100  00000-0 -62467-6 0  9990,2 55774  69.9987  76.8002 0003026 273.9885  86.0928 14.98329146 25595,6950.196,96.107,574.164,569.957,0.0
55774.0,STARLINK-5812,PAYLOAD,2023-08-13 00:56:47,14.9833026,0.0002979,69.9989,73.6019,267.9611,92.1207,-2.1924e-05,-3.55e-06,0.0,0 STARLINK-5812,1 55774U 23028AK  23225.03944260 -.00000355  00000-0 -21924-4 0  9992,2 55774  69.9989  73.6019 0002979 267.9611  92.1207 14.98330260 25784,6950.192,96.107,574.128,569.987,0.0
55774.0,STARLINK-5812,PAYLOAD,2023-08-14 17:00:09,14.98331233,0.0003051,69.999,69.3935,268.4611,91.6198,1.0124e-05,2.8e-07,0.0,0 STARLINK-5812,1 55774U 23028AK  23226.70844181  .00000028  00000-0  10124-4 0  9993,2 55774  69.9990  69.3935 0003051 268.4611  91.6198 14.98331233 26036,6950.189,96.107,574.175,569.934,0.0
55774.0,STARLINK-5812,PAYLOAD,2023-08-17 05:53:15,14.98329556,0.0002997,69.9991,62.9971,269.0721,91.0095,-1.0459e-06,-1.05e-06,0.0,0 STARLINK-5812,1 55774U 23028AK  23229.24532157 -.00000105  00000-0 -10459-5 0  9992,2 55774  69.9991  62.9971 0002997 269.0721  91.0095 14.98329556 26410,6950.194,96.107,574.142,569.976,0.0
55774.0,STARLINK-5812,PAYLOAD,2023-08-18 05:55:16,14.98328749,0.0003021,69.999,60.4721,269.3814,90.6999,-1.4726e-05,-2.69e-06,0.0,0 STARLINK-5812,1 55774U 23028AK  23230.24672125 -.00000269  00000-0 -14726-4 0  9995,2 55774  69.9990  60.4721 0003021 269.3814  90.6999 14.98328749 26567,6950.197,96.107,574.161,569.962,0.0
55774.0,STARLINK-5812,PAYLOAD,2023-08-19 09:09:33,14.98323519,0.0003096,69.9991,57.6101,269.5802,90.5002,2.8959e-05,2.52e-06,0.0,0 STARLINK-5812,1 55774U 23028AK  23231.38164350  .00000252  00000-0  28959-4 0  9990,2 55774  69.9991  57.6101 0003096 269.5802  90.5002 14.98323519 26732,6950.213,96.107,574.23,569.926,0.0
55774.0,STARLINK-5812,PAYLOAD,2023-08-20 02:47:02,14.98330331,0.0003133,69.999,55.7583,270.3071,89.7729,4.1039e-05,3.97e-06,0.0,0 STARLINK-5812,1 55774U 23028AK  23232.11599878  .00000397  00000-0  41039-4 0  9993,2 55774  69.9990  55.7583 0003133 270.3071  89.7729 14.98330331 26842,6950.192,96.107,574.234,569.879,0.0
55774.0,STARLINK-5812,PAYLOAD,2023-08-21 06:01:19,14.98330786,0.000316,69.999,52.8962,270.5779,89.5017,-5.8795e-06,-1.63e-06,0.0,0 STARLINK-5812,1 55774U 23028AK  23233.25091948 -.00000163  00000-0 -58795-5 0  9995,2 55774  69.9990  52.8962 0003160 270.5779  89.5017 14.98330786 27010,6950.19,96.107,574.252,569.859,0.0
55774.0,STARLINK-5812,PAYLOAD,2023-08-22 14:04:00,14.98329259,0.0003161,69.9992,49.5296,270.6882,89.3914,1.7052e-05,1.1e-06,0.0,0 STARLINK-5812,1 55774U 23028AK  23234.58611904  .00000110  00000-0  17052-4 0  9992,2 55774  69.9992  49.5296 0003161 270.6882  89.3914 14.98329259 27211,6950.195,96.107,574.257,569.863,0.0
55774.0,STARLINK-5812,PAYLOAD,2023-08-23 20:30:33,14.98329456,0.0003016,70.0002,46.3313,270.8758,89.2056,-6.9869e-06,-1.76e-06,0.0,0 STARLINK-5812,1 55774U 23028AK  23235.85455858 -.00000176  00000-0 -69869-5 0  9995,2 55774  70.0002  46.3313 0003016 270.8758  89.2056 14.98329456 27400,6950.195,96.107,574.156,569.963,0.0
55774.0,STARLINK-5812,PAYLOAD,2023-08-24 22:08:42,14.9833078,0.0003003,70.0002,43.6377,269.0381,91.0434,2.2248e-06,-6.6e-07,0.0,0 STARLINK-5812,1 55774U 23028AK  23236.92271641 -.00000066  00000-0  22248-5 0  9997,2 55774  70.0002  43.6377 0003003 269.0381  91.0434 14.98330780 27568,6950.19,96.107,574.143,569.968,0.0
55774.0,STARLINK-5812,PAYLOAD,2023-08-25 12:33:56,14.98311032,0.0003163,70.0001,42.1238,272.0161,88.0635,0.00020531,2.356e-05,0.0,0 STARLINK-5812,1 55774U 23028AK  23237.52356495  .00002356  00000-0  20531-3 0  9999,2 55774  70.0001  42.1238 0003163 272.0161  88.0635 14.98311032 27652,6950.252,96.108,574.315,569.918,0.0
55774.0,STARLINK-5812,PAYLOAD,2023-08-25 20:34:35,14.98326924,0.0002983,70.0005,41.2828,267.6611,92.4206,-1.0337e-05,-2.16e-06,0.0,0 STARLINK-5812,1 55774U 23028AK  23237.85736010 -.00000216  00000-0 -10337-4 0  9999,2 55774  70.0005  41.2828 0002983 267.6611  92.4206 14.98326924 27705,6950.202,96.107,574.141,569.994,0.0
55774.0,STARLINK-5812,PAYLOAD,2023-08-25 22:10:43,14.98326545,0.0002903,70.0007,41.115,265.178,94.9048,-4.9304e-06,-1.52e-06,0.0,0 STARLINK-5812,1 55774U 23028AK  23237.92412028 -.00000152  00000-0 -49304-5 0  9993,2 55774  70.0007  41.1150 0002903 265.1780  94.9048 14.98326545 27717,6950.204,96.107,574.086,570.051,0.0
55774.0,STARLINK-5812,PAYLOAD,2023-08-26 12:35:56,14.98334071,0.0003,70.0006,39.5989,266.0384,94.0432,-1.9056e-05,-3.2e-06,0.0,0 STARLINK-5812,1 55774U 23028AK  23238.52495662 -.00000320  00000-0 -19056-4 0  9992,2 55774  70.0006  39.5989 0003000 266.0384  94.0432 14.98334071 27807,6950.18,96.107,574.13,569.96,0.0
55774.0,STARLINK-5812,PAYLOAD,2023-08-26 20:36:36,14.98330465,0.0002895,70.0006,38.757,268.5987,91.4841,4.3949e-05,4.31e-06,0.0,0 STARLINK-5812,1 55774U 23028AK  23238.85875631  .00000431  00000-0  43949-4 0  9995,2 55774  70.0006  38.7570 0002895 268.5987  91.4841 14.98330465 27854,6950.191,96.107,574.069,570.044,0.0
55774.0,STARLINK-5812,PAYLOAD,2023-08-26 22:12:44,14.98331483,0.0002904,70.0006,38.5892,267.6479,92.4348,5.4047e-05,5.52e-06,0.0,0 STARLINK-5812,1 55774U 23028AK  23238.92551528  .00000552  00000-0  54047-4 0  9994,2 55774  70.0006  38.5892 0002904 267.6479  92.4348 14.98331483 27861,6950.188,96.107,574.072,570.035,0.0
55774.0,STARLINK-5812,PAYLOAD,2023-08-27 20:38:37,14.98329914,0.000286,70.001,36.233,263.5474,96.5359,4.684e-05,4.66e-06,0.0,0 STARLINK-5812,1 55774U 23028AK  23239.86015610  .00000466  00000-0  46840-4 0  9991,2 55774  70.0010  36.2330 0002860 263.5474  96.5359 14.98329914 28009,6950.193,96.107,574.046,570.07,0.0
55774.0,STARLINK-5812,PAYLOAD,2023-08-27 22:14:45,14.98330721,0.0002956,70.0009,36.0643,267.1969,92.8852,7.9236e-05,8.53e-06,0.0,0 STARLINK-5812,1 55774U 23028AK  23239.92691489  .00000853  00000-0  79236-4 0  9997,2 55774  70.0009  36.0643 0002956 267.1969  92.8852 14.98330721 28013,6950.191,96.107,574.11,570.001,0.0
55774.0,STARLINK-5812,PAYLOAD,2023-08-28 17:28:21,14.98353191,0.000289,70.0011,34.0447,265.2855,94.7974,-0.00034381,-4.195e-05,0.0,0 STARLINK-5812,1 55774U 23028AK  23240.72803072 -.00004195  00000-0 -34381-3 0  9996,2 55774  70.0011  34.0447 0002890 265.2855  94.7974 14.98353191 28131,6950.121,96.106,573.995,569.978,0.0
55774.0,STARLINK-5812,PAYLOAD,2023-08-28 20:40:38,14.98332363,0.0002842,70.0011,33.7079,264.7135,95.37,-3.5775e-07,-9.7e-07,0.0,0 STARLINK-5812,1 55774U 23028AK  23240.86155462 -.00000097  00000-0 -35775-6 0  9992,2 55774  70.0011  33.7079 0002842 264.7135  95.3700 14.98332363 28154,6950.186,96.107,574.026,570.075,0.0
55774.0,STARLINK-5812,PAYLOAD,2023-08-28 22:16:46,14.98335563,0.0002914,70.001,33.5389,270.5039,89.5786,-1.1741e-05,-2.33e-06,0.0,0 STARLINK-5812,1 55774U 23028AK  23240.92831288 -.00000233  00000-0 -11741-4 0  9993,2 55774  70.0010  33.5389 0002914 270.5039  89.5786 14.98335563 28168,6950.176,96.107,574.066,570.015,0.0
55774.0,STARLINK-5812,PAYLOAD,2023-08-29 19:06:31,14.98331282,0.0002925,70.001,31.3508,267.9801,92.1023,-4.898e-06,-1.51e-06,0.0,0 STARLINK-5812,1 55774U 23028AK  23241.79619431 -.00000151  00000-0 -48980-5 0  9998,2 55774  70.0010  31.3508 0002925 267.9801  92.1023 14.98331282 28298,6950.189,96.107,574.087,570.021,0.0
55774.0,STARLINK-5812,PAYLOAD,2023-08-29 22:18:47,14.98333896,0.0002998,70.0009,31.0134,272.8011,87.2805,2.3558e-05,1.88e-06,0.0,0 STARLINK-5812,1 55774U 23028AK  23241.92971191  .00000188  00000-0  23558-4 0  9998,2 55774  70.0009  31.0134 0002998 272.8011  87.2805 14.98333896 28315,6950.181,96.107,574.13,569.962,0.0
55774.0,STARLINK-5812,PAYLOAD,2023-08-30 15:56:16,14.9833004,0.0003104,70.0007,29.1621,270.2949,89.7854,-3.4576e-05,-5.06e-06,0.0,0 STARLINK-5812,1 55774U 23028AK  23242.66407482 -.00000506  00000-0 -34576-4 0  9995,2 55774  70.0007  29.1621 0003104 270.2949  89.7854 14.98330040 28425,6950.193,96.107,574.215,569.9,0.0
55774.0,STARLINK-5812,PAYLOAD,2023-08-31 03:09:12,14.98333061,0.000302,70.001,27.9844,269.301,90.7803,-4.2056e-05,-5.95e-06,0.0,0 STARLINK-5812,1 55774U 23028AK  23243.13139234 -.00000595  00000-0 -42056-4 0  9995,2 55774  70.0010  27.9844 0003020 269.3010  90.7803 14.98333061 28496,6950.183,96.107,574.147,569.949,0.0
55774.0,STARLINK-5812,PAYLOAD,2023-09-01 09:35:45,14.98325112,0.0003529,70.0014,24.7877,270.5657,89.5097,-3.687e-05,-5.33e-06,0.0,0 STARLINK-5812,1 55774U 23028AK  23244.39983584 -.00000533  00000-0 -36870-4 0  9998,2 55774  70.0014  24.7877 0003529 270.5657  89.5097 14.98325112 28686,6950.208,96.107,574.526,569.62,0.0
55774.0,STARLINK-5812,PAYLOAD,2023-09-01 16:00:17,14.98332937,0.0003048,70.001,24.1125,270.9853,89.0957,1.6051e-05,9.9e-07,0.0,0 STARLINK-5812,1 55774U 23028AK  23244.66687153  .00000099  00000-0  16051-4 0  9995,2 55774  70.0010  24.1125 0003048 270.9853  89.0957 14.98332937 28728,6950.184,96.107,574.167,569.93,0.0
55774.0,STARLINK-5812,PAYLOAD,2023-09-02 12:50:02,14.98326924,0.0002827,70.002,21.924,271.6002,88.4833,8.1845e-06,5e-08,0.0,0 STARLINK-5812,1 55774U 23028AK  23245.53475595  .00000005  00000-0  81845-5 0  9998,2 55774  70.0020  21.9240 0002827 271.6002  88.4833 14.98326924 28859,6950.202,96.107,574.032,570.103,0.0
55774.0,STARLINK-5812,PAYLOAD,2023-09-02 16:02:18,14.98328679,0.0003216,70.0005,21.5878,270.6281,89.451,1.9833e-05,1.44e-06,0.0,0 STARLINK-5812,1 55774U 23028AK  23245.66827309  .00000144  00000-0  19833-4 0  9997,2 55774  70.0005  21.5878 0003216 270.6281  89.4510 14.98328679 28870,6950.197,96.107,574.297,569.827,0.0
